{"spkid": "50799020", "covariance": {"epoch": "2458456.5", "elements": [{"units": null, "title": "eccentricity", "value": ".5784193730871545", "name": "e", "sigma": 5.20531426673285e-07, "label": "e"}, {"label": "q", "value": ".778573071674729", "title": "perihelion distance", "units": "au", "name": "q", "sigma": 9.58204785376343e-07}, {"sigma": 2.09093330087024e-05, "name": "tp", "title": "time of perihelion passage", "value": "2458213.171732096102", "units": "TDB", "label": "tp"}, {"value": "309.0462013606327", "title": "longitude of the ascending node", "units": "deg", "sigma": 7.3283533171645e-05, "name": "om", "label": "node"}, {"label": "peri", "units": "deg", "title": "argument of perihelion", "value": "268.8554930397393", "name": "w", "sigma": 0.000126973588926687}, {"sigma": 1.91462839142224e-05, "name": "i", "title": "inclination", "value": "2.909082642042304", "units": "deg", "label": "i"}], "data": [["2.709529661545255E-13", "-4.987669257178223E-13", "4.290550727308747E-12", "-1.775776481538184E-12", "5.324923177151291E-11", "-5.587230331523356E-12"], ["-4.987669257178223E-13", "9.181564107181243E-13", "-7.823649624873733E-12", "3.276741192664612E-12", "-9.795303761052165E-11", "1.031325422256024E-11"], ["4.290550727308747E-12", "-7.823649624873733E-12", "4.372002068688112E-10", "6.255988615794904E-12", "1.185925906016918E-9", "3.985506298542207E-11"], ["-1.775776481538184E-12", "3.276741192664612E-12", "6.255988615794904E-12", "5.370476234119588E-9", "-5.663456506224387E-9", "9.78445665392469E-10"], ["5.324923177151291E-11", "-9.795303761052165E-11", "1.185925906016918E-9", "-5.663456506224387E-9", "1.612229228492337E-8", "-1.903712025111379E-9"], ["-5.587230331523356E-12", "1.031325422256024E-11", "3.985506298542207E-11", "9.78445665392469E-10", "-1.903712025111379E-9", "3.665801877240104E-10"]], "labels": ["e", "q", "tp", "node", "peri", "i"]}, "elements": [{"label": "e", "sigma": "5.1537E-7", "name": "e", "value": ".5773411294075793", "title": "eccentricity", "units": null}, {"sigma": "1.5051E-8", "name": "a", "units": "au", "value": "1.848198940519731", "title": "semi-major axis", "label": "a"}, {"label": "q", "units": "au", "value": ".7811576768301778", "title": "perihelion distance", "sigma": "9.4846E-7", "name": "q"}, {"units": "deg", "title": "inclination; angle with respect to x-y ecliptic plane", "value": "2.907783116954458", "sigma": "1.9119E-5", "name": "i", "label": "i"}, {"label": "node", "name": "om", "sigma": "7.3666E-5", "units": "deg", "title": "longitude of the ascending node", "value": "308.7303607976514"}, {"label": "peri", "value": "269.1620692640876", "title": "argument of perihelion", "units": "deg", "sigma": ".00012886", "name": "w"}, {"label": "M", "name": "ma", "sigma": "2.2221E-5", "title": "mean anomaly", "value": "92.60103712665808", "units": "deg"}, {"label": "tp", "sigma": "5.3871E-5", "name": "tp", "value": "2460964.433232986720", "title": "time of perihelion passage", "units": "TDB"}, {"label": "period", "value": "917.7438910164815", "title": "sidereal orbital period", "units": "d", "sigma": "1.1211E-5", "name": "per"}, {"sigma": "4.7917E-9", "name": "n", "value": ".3922662994806411", "title": "mean motion", "units": "deg/d", "label": "n"}, {"label": "Q", "title": "aphelion distance", "value": "2.915240204209284", "units": "au", "name": "ad", "sigma": "2.3741E-8"}], "epoch": "2461200.5"}